start=new Date('2023-01-22T00:00:00.000Z').valueOf();
sats=[{"ELEMENT_SET_NO":"999","NORAD_CAT_ID":"54052","ARG_OF_PERICENTER":"89.7442","PERIOD":"91.533","EPOCH":"2023-01-21T09:57:22.061088","SITE":"AFETR","REV_AT_EPOCH":"1512","INCLINATION":"53.2171","RCS_SIZE":"LARGE","MEAN_MOTION_DOT":"-0.00000356","DECAY_DATE":null,"TLE_LINE1":"1 54052U 22136B   23021.41483867 -.00000356  00000-0  18809-5 0  9995","TIME_SYSTEM":"UTC","RA_OF_ASC_NODE":"48.2244","PERIAPSIS":"348.967","MEAN_MOTION_DDOT":"0.0000000000000","OBJECT_NAME":"STARLINK-5189","BSTAR":"0.00000188090000","MEAN_MOTION":"15.73206228","SEMIMAJOR_AXIS":"6727.877","TLE_LINE2":"2 54052  53.2171  48.2244 0001153  89.7442 270.3710 15.73206228 15120","OBJECT_ID":"2022-136B","MEAN_ANOMALY":"270.3710","CLASSIFICATION_TYPE":"U","ECCENTRICITY":"0.00011530","FILE":"3757042","GP_ID":"223574889","COUNTRY_CODE":"US","OBJECT_TYPE":"PAYLOAD","APOAPSIS":"350.518","REF_FRAME":"TEME","LAUNCH_DATE":"2022-10-20","MEAN_ELEMENT_THEORY":"SGP4","CENTER_NAME":"EARTH","EPHEMERIS_TYPE":"0"},{"OBJECT_TYPE":"PAYLOAD","APOAPSIS":"540.750","LAUNCH_DATE":"2022-10-20","REF_FRAME":"TEME","MEAN_ELEMENT_THEORY":"SGP4","CENTER_NAME":"EARTH","EPHEMERIS_TYPE":"0","COUNTRY_CODE":"US","GP_ID":"223581026","ECCENTRICITY":"0.00015000","FILE":"3757302","SEMIMAJOR_AXIS":"6917.847","TLE_LINE2":"2 54053  53.2168  74.6554 0001500  88.1137 272.0027 15.08850938 14797","MEAN_ANOMALY":"272.0027","OBJECT_ID":"2022-136C","CLASSIFICATION_TYPE":"U","RA_OF_ASC_NODE":"74.6554","TIME_SYSTEM":"UTC","PERIAPSIS":"538.674","MEAN_MOTION_DDOT":"0.0000000000000","OBJECT_NAME":"STARLINK-5176","BSTAR":"0.00131950000000","MEAN_MOTION":"15.08850938","INCLINATION":"53.2168","RCS_SIZE":"LARGE","MEAN_MOTION_DOT":"0.00020780","DECAY_DATE":null,"TLE_LINE1":"1 54053U 22136C   23021.86693725  .00020780  00000-0  13195-2 0  9993","EPOCH":"2023-01-21T20:48:23.378400","SITE":"AFETR","REV_AT_EPOCH":"1479","NORAD_CAT_ID":"54053","ELEMENT_SET_NO":"999","ARG_OF_PERICENTER":"88.1137","PERIOD":"95.437"},{"MEAN_MOTION_DOT":"0.00002790","DECAY_DATE":null,"INCLINATION":"53.2175","RCS_SIZE":"LARGE","TLE_LINE1":"1 54054U 22136D   23021.46212098  .00002790  00000-0  19330-3 0  9999","MEAN_MOTION_DDOT":"0.0000000000000","OBJECT_NAME":"STARLINK-5163","TIME_SYSTEM":"UTC","RA_OF_ASC_NODE":"76.3894","PERIAPSIS":"538.982","BSTAR":"0.00019330000000","MEAN_MOTION":"15.08845410","ELEMENT_SET_NO":"999","NORAD_CAT_ID":"54054","PERIOD":"95.437","ARG_OF_PERICENTER":"78.3978","SITE":"AFETR","REV_AT_EPOCH":"1473","EPOCH":"2023-01-21T11:05:27.252672","GP_ID":"223574897","COUNTRY_CODE":"US","OBJECT_TYPE":"PAYLOAD","MEAN_ELEMENT_THEORY":"SGP4","EPHEMERIS_TYPE":"0","CENTER_NAME":"EARTH","APOAPSIS":"540.476","REF_FRAME":"TEME","LAUNCH_DATE":"2022-10-20","TLE_LINE2":"2 54054  53.2175  76.3894 0001080  78.3978 281.7136 15.08845410 14730","OBJECT_ID":"2022-136D","MEAN_ANOMALY":"281.7136","SEMIMAJOR_AXIS":"6917.864","CLASSIFICATION_TYPE":"U","ECCENTRICITY":"0.00010800","FILE":"3757040"},{"COUNTRY_CODE":"US","GP_ID":"223556360","OBJECT_TYPE":"PAYLOAD","MEAN_ELEMENT_THEORY":"SGP4","CENTER_NAME":"EARTH","EPHEMERIS_TYPE":"0","APOAPSIS":"540.700","LAUNCH_DATE":"2022-10-20","REF_FRAME":"TEME","TLE_LINE2":"2 54055  53.2168  79.0910 0001367  84.4358 275.6790 15.08837180 14643","OBJECT_ID":"2022-136E","MEAN_ANOMALY":"275.6790","SEMIMAJOR_AXIS":"6917.889","CLASSIFICATION_TYPE":"U","ECCENTRICITY":"0.00013670","FILE":"3756249","MEAN_MOTION_DOT":"0.00014888","DECAY_DATE":null,"INCLINATION":"53.2168","RCS_SIZE":"LARGE","TLE_LINE1":"1 54055U 22136E   23020.86965428  .00014888  00000-0  95160-3 0  9991","MEAN_MOTION_DDOT":"0.0000000000000","OBJECT_NAME":"STARLINK-5158","RA_OF_ASC_NODE":"79.0910","TIME_SYSTEM":"UTC","PERIAPSIS":"538.808","BSTAR":"0.00095160000000","MEAN_MOTION":"15.08837180","NORAD_CAT_ID":"54055","ELEMENT_SET_NO":"999","PERIOD":"95.438","ARG_OF_PERICENTER":"84.4358","SITE":"AFETR","REV_AT_EPOCH":"1464","EPOCH":"2023-01-20T20:52:18.129792"},{"ELEMENT_SET_NO":"999","NORAD_CAT_ID":"54056","PERIOD":"95.438","ARG_OF_PERICENTER":"102.9019","SITE":"AFETR","REV_AT_EPOCH":"1466","EPOCH":"2023-01-20T23:53:51.186048","MEAN_MOTION_DOT":"0.00012160","DECAY_DATE":null,"INCLINATION":"53.2177","RCS_SIZE":"LARGE","TLE_LINE1":"1 54056U 22136F   23020.99573132  .00012160  00000-0  78112-3 0  9992","MEAN_MOTION_DDOT":"0.0000000000000","OBJECT_NAME":"STARLINK-5226","RA_OF_ASC_NODE":"78.4571","TIME_SYSTEM":"UTC","PERIAPSIS":"538.902","BSTAR":"0.00078112000000","MEAN_MOTION":"15.08825409","TLE_LINE2":"2 54056  53.2177  78.4571 0001284 102.9019 257.2117 15.08825409 14660","OBJECT_ID":"2022-136F","MEAN_ANOMALY":"257.2117","SEMIMAJOR_AXIS":"6917.925","CLASSIFICATION_TYPE":"U","ECCENTRICITY":"0.00012840","FILE":"3756791","COUNTRY_CODE":"US","GP_ID":"223569083","OBJECT_TYPE":"PAYLOAD","MEAN_ELEMENT_THEORY":"SGP4","EPHEMERIS_TYPE":"0","CENTER_NAME":"EARTH","APOAPSIS":"540.678","LAUNCH_DATE":"2022-10-20","REF_FRAME":"TEME"},{"ELEMENT_SET_NO":"999","NORAD_CAT_ID":"54057","ARG_OF_PERICENTER":"37.2309","PERIOD":"91.613","EPOCH":"2023-01-21T08:36:30.495456","SITE":"AFETR","REV_AT_EPOCH":"1506","INCLINATION":"53.2112","RCS_SIZE":"LARGE","MEAN_MOTION_DOT":"0.00100739","DECAY_DATE":null,"TLE_LINE1":"1 54057U 22136G   23021.35868629  .00100739  00000-0  75624-3 0  9997","TIME_SYSTEM":"UTC","RA_OF_ASC_NODE":"52.2219","PERIAPSIS":"351.647","MEAN_MOTION_DDOT":"0.0000000000000","OBJECT_NAME":"STARLINK-5216","MEAN_MOTION":"15.71829303","BSTAR":"0.00075624000000","SEMIMAJOR_AXIS":"6731.806","TLE_LINE2":"2 54057  53.2112  52.2219 0003006  37.2309 322.8919 15.71829303 15066","MEAN_ANOMALY":"322.8919","OBJECT_ID":"2022-136G","CLASSIFICATION_TYPE":"U","ECCENTRICITY":"0.00030060","FILE":"3757040","COUNTRY_CODE":"US","GP_ID":"223574896","OBJECT_TYPE":"PAYLOAD","APOAPSIS":"355.695","REF_FRAME":"TEME","LAUNCH_DATE":"2022-10-20","MEAN_ELEMENT_THEORY":"SGP4","CENTER_NAME":"EARTH","EPHEMERIS_TYPE":"0"},{"BSTAR":"0.00033239000000","MEAN_MOTION":"15.08844486","OBJECT_NAME":"STARLINK-5167","MEAN_MOTION_DDOT":"0.0000000000000","PERIAPSIS":"539.127","TIME_SYSTEM":"UTC","RA_OF_ASC_NODE":"76.3223","TLE_LINE1":"1 54058U 22136H   23021.45106808  .00005007  00000-0  33239-3 0  9991","DECAY_DATE":null,"MEAN_MOTION_DOT":"0.00005007","RCS_SIZE":"LARGE","INCLINATION":"53.2177","REV_AT_EPOCH":"1473","SITE":"AFETR","EPOCH":"2023-01-21T10:49:32.282112","PERIOD":"95.437","ARG_OF_PERICENTER":"115.9359","ELEMENT_SET_NO":"999","NORAD_CAT_ID":"54058","CENTER_NAME":"EARTH","EPHEMERIS_TYPE":"0","MEAN_ELEMENT_THEORY":"SGP4","LAUNCH_DATE":"2022-10-20","REF_FRAME":"TEME","APOAPSIS":"540.336","OBJECT_TYPE":"PAYLOAD","COUNTRY_CODE":"US","GP_ID":"223580852","FILE":"3757302","ECCENTRICITY":"0.00008740","CLASSIFICATION_TYPE":"U","OBJECT_ID":"2022-136H","MEAN_ANOMALY":"244.1723","TLE_LINE2":"2 54058  53.2177  76.3223 0000874 115.9359 244.1723 15.08844486 14730","SEMIMAJOR_AXIS":"6917.867"},{"ELEMENT_SET_NO":"999","NORAD_CAT_ID":"54059","ARG_OF_PERICENTER":"101.7561","PERIOD":"95.437","EPOCH":"2023-01-21T10:54:50.572800","REV_AT_EPOCH":"1473","SITE":"AFETR","RCS_SIZE":"LARGE","INCLINATION":"53.2188","DECAY_DATE":null,"MEAN_MOTION_DOT":"0.00002866","TLE_LINE1":"1 54059U 22136J   23021.45475200  .00002866  00000-0  19803-3 0  9998","PERIAPSIS":"538.906","TIME_SYSTEM":"UTC","RA_OF_ASC_NODE":"76.3502","OBJECT_NAME":"STARLINK-5173","MEAN_MOTION_DDOT":"0.0000000000000","BSTAR":"0.00019803000000","MEAN_MOTION":"15.08851073","SEMIMAJOR_AXIS":"6917.847","MEAN_ANOMALY":"258.3562","OBJECT_ID":"2022-136J","TLE_LINE2":"2 54059  53.2188  76.3502 0001164 101.7561 258.3562 15.08851073 14732","CLASSIFICATION_TYPE":"U","ECCENTRICITY":"0.00011640","FILE":"3757040","GP_ID":"223574693","COUNTRY_CODE":"US","OBJECT_TYPE":"PAYLOAD","LAUNCH_DATE":"2022-10-20","REF_FRAME":"TEME","APOAPSIS":"540.517","EPHEMERIS_TYPE":"0","CENTER_NAME":"EARTH","MEAN_ELEMENT_THEORY":"SGP4"},{"TLE_LINE1":"1 54060U 22136K   23021.58334491 -.00920407  00000-0 -19516-1 0  9991","DECAY_DATE":null,"MEAN_MOTION_DOT":"-0.00920407","RCS_SIZE":"LARGE","INCLINATION":"53.2146","BSTAR":"-0.01951600000000","MEAN_MOTION":"15.46998881","OBJECT_NAME":"STARLINK-5169","MEAN_MOTION_DDOT":"0.0000000000000","PERIAPSIS":"424.629","TIME_SYSTEM":"UTC","RA_OF_ASC_NODE":"48.7774","PERIOD":"93.083","ARG_OF_PERICENTER":"90.3574","ELEMENT_SET_NO":"999","NORAD_CAT_ID":"54060","REV_AT_EPOCH":"1513","SITE":"AFETR","EPOCH":"2023-01-21T14:00:01.000224","COUNTRY_CODE":"US","GP_ID":"223574904","EPHEMERIS_TYPE":"0","CENTER_NAME":"EARTH","MEAN_ELEMENT_THEORY":"SGP4","REF_FRAME":"TEME","LAUNCH_DATE":"2022-10-20","APOAPSIS":"426.398","OBJECT_TYPE":"PAYLOAD","CLASSIFICATION_TYPE":"U","OBJECT_ID":"2022-136K","MEAN_ANOMALY":"165.1751","TLE_LINE2":"2 54060  53.2146  48.7774 0001300  90.3574 165.1751 15.46998881 15132","SEMIMAJOR_AXIS":"6803.648","FILE":"3757040","ECCENTRICITY":"0.00013000"},{"GP_ID":"223568652","COUNTRY_CODE":"US","OBJECT_TYPE":"PAYLOAD","MEAN_ELEMENT_THEORY":"SGP4","CENTER_NAME":"EARTH","EPHEMERIS_TYPE":"0","APOAPSIS":"381.847","REF_FRAME":"TEME","LAUNCH_DATE":"2022-10-20","TLE_LINE2":"2 54061  53.2142  47.0044 0001254  80.9631 248.0611 15.62306067 15131","MEAN_ANOMALY":"248.0611","OBJECT_ID":"2022-136L","SEMIMAJOR_AXIS":"6759.135","CLASSIFICATION_TYPE":"U","ECCENTRICITY":"0.00012540","FILE":"3756784","MEAN_MOTION_DOT":"-0.00894668","DECAY_DATE":null,"INCLINATION":"53.2142","RCS_SIZE":"LARGE","TLE_LINE1":"1 54061U 22136L   23021.33335648 -.00894668  00000-0 -10907-1 0  9994","MEAN_MOTION_DDOT":"0.0000000000000","OBJECT_NAME":"STARLINK-5209","RA_OF_ASC_NODE":"47.0044","TIME_SYSTEM":"UTC","PERIAPSIS":"380.152","BSTAR":"-0.01090700000000","MEAN_MOTION":"15.62306067","ELEMENT_SET_NO":"999","NORAD_CAT_ID":"54061","PERIOD":"92.171","ARG_OF_PERICENTER":"80.9631","SITE":"AFETR","REV_AT_EPOCH":"1513","EPOCH":"2023-01-21T08:00:01.999872"}];
